KUIPER-00251            
1 67156U 25301Z   26005.53497184  .00029717  00000+0  86717-3 0  9997
2 67156  51.8678  10.4738 0009012 166.4594 193.6635 15.35056282  4219
KUIPER-00252            
1 67157U 25301AA  26005.54141781  .00028794  00000+0  84937-3 0  9994
2 67157  51.8669  10.5143 0009892 178.8227 181.2783 15.34725255  4025
KUIPER-00261            
1 67158U 25301AB  26005.52588765  .00033007  00000+0  93643-3 0  9997
2 67158  51.8706  10.4176 0006492 151.8938 208.2400 15.35904184  4023
KUIPER-00265            
1 67159U 25301AC  26005.58336806 -.01139503  00000+0 -38577-1 0  9995
2 67159  51.8759  10.0388 0001619 104.3426 269.1201 15.33030048  4060
GALILEO 33              
1 67160U 25302A   25352.14605887 -.00000007  00000+0  00000+0 0  9994
2 67160  54.2406 107.2544 0008423 237.6458 122.2317  1.72906186    28
GALILEO B               
1 67161U 25302B   26002.75476967 -.00000025  00000+0  00000+0 0  9990
2 67161  54.2350 106.7647 0007180 268.5393  91.3592  1.72971423   303
GALILEO 33 (139)        
1 67162U 25302C   25356.18244914  .00000006  00000+0  00000+0 0  9992
2 67162  54.2447 107.1379 0000312 196.8367 159.4994  1.73130437   127
STARLINK-35755          
1 67163U 25303A   25351.60835648 -.00002699  85337-5  00000+0 0  9999
2 67163  43.0100  69.0834 0011500 323.6500   9.4800 16.01284782    10
STARLINK-36201          
1 67164U 25303B   25351.60835648 -.00002699  85337-5  00000+0 0  9990
2 67164  43.0100  69.0834 0011500 323.6500   9.4800 16.01284782    11
STARLINK-36186          
1 67165U 25303C   25351.60835648 -.00002699  85337-5  00000+0 0  9991
2 67165  43.0100  69.0834 0011500 323.6500   9.4800 16.01284782    12
STARLINK-36174          
1 67166U 25303D   25351.60835648 -.00002699  85337-5  00000+0 0  9992
2 67166  43.0100  69.0834 0011500 323.6500   9.4800 16.01284782    13
STARLINK-36198          
1 67167U 25303E   25351.60835648 -.00002699  85337-5  00000+0 0  9993
2 67167  43.0100  69.0834 0011500 323.6500   9.4800 16.01284782    14
